IRIDIUM 39              
1 25042U 97069D   25238.90038717  .00000675  00000+0  17106-3 0  9994
2 25042  86.3975 180.8361 0020103  72.5697 287.7703 14.49291626459200
IRIDIUM 38              
1 25043U 97069E   25238.93010366  .00000459  00000+0  14499-3 0  9990
2 25043  86.3987 203.4011 0001531 144.1001 216.0300 14.38166273456120
IRIDIUM 42              
1 25077U 97077A   25238.95358066  .00000420  00000+0  13675-3 0  9993
2 25077  86.3978 209.6432 0001573  98.6959 261.4416 14.36397795451358
IRIDIUM 44              
1 25078U 97077B   25238.92547051  .00000494  00000+0  14977-3 0  9992
2 25078  86.4010 191.4104 0003443 117.5497 242.6053 14.40290633453883
IRIDIUM 45              
1 25104U 97082A   25238.86649643  .00023007  00000+0  76898-3 0  9996
2 25104  86.3609  13.5044 0113022  66.9485 294.3630 15.24826173462806
IRIDIUM 24              
1 25105U 97082B   25238.94612196  .00000508  00000+0  14839-3 0  9997
2 25105  86.3874  50.2631 0010697 193.8778 166.2130 14.42153944453417
IRIDIUM 51              
1 25262U 98018A   25238.90410432  .00038244  00000+0  73983-3 0  9999
2 25262  86.3839  20.6864 0077374 338.1194  21.6762 15.44279134457920
IRIDIUM 57              
1 25273U 98019B   25238.90350196  .00000313  00000+0  10103-3 0  9993
2 25273  86.3950 115.6400 0002074  88.7631 271.3803 14.35932490434932
